OBJECT_NAME,OBJECT_ID,EPOCH,MEAN_MOTION,ECCENTRICITY,INCLINATION,RA_OF_ASC_NODE,ARG_OF_PERICENTER,MEAN_ANOMALY,EPHEMERIS_TYPE,CLASSIFICATION_TYPE,NORAD_CAT_ID,ELEMENT_SET_NO,REV_AT_EPOCH,BSTAR,MEAN_MOTION_DOT,MEAN_MOTION_DDOT
STARLINK-32013,2024-117N,2026-01-26T13:23:19.905792,15.30202953,.00018153,53.1571,232.9810,89.5158,270.6051,0,U,60103,999,9043,.40481345E-3,.1165E-3,0
STARLINK-32009,2024-117P,2026-01-26T07:25:21.161280,15.30190127,.0001396,53.1591,234.2508,94.1279,265.9882,0,U,60104,999,9039,.39435E-4,.808E-5,0
STARLINK-32018,2024-117Q,2026-01-26T13:09:39.807360,15.30187275,.00009375,53.1590,232.9202,108.6570,251.4532,0,U,60105,999,9043,.20127339E-4,.237E-5,0
STARLINK-32045,2024-117R,2026-01-26T13:14:12.952320,15.30181888,.00010064,53.1587,232.9418,101.4047,258.7067,0,U,60106,999,9043,.10885802E-4,-.37E-6,0
STARLINK-32035,2024-117S,2026-01-25T13:23:40.041312,15.30188335,.0001169,53.1546,237.4064,106.2985,253.8144,0,U,60107,999,9028,-.77668E-4,-.2658E-4,0
STARLINK-32042,2024-117T,2026-01-26T14:14:50.305056,15.30189943,.00013134,53.1559,232.4911,83.0047,277.1103,0,U,60108,999,9044,.27590102E-4,.458E-5,0
STARLINK-32040,2024-117U,2026-01-25T00:11:43.226880,15.30194802,.00011681,53.1588,239.6678,94.0130,266.1005,0,U,60109,999,9020,.26619365E-4,.429E-5,0
STARLINK-32001,2024-117V,2026-01-26T14:01:09.264864,15.30197730,.0000941,53.1556,232.4321,119.6402,240.4692,0,U,60110,999,9044,.88746456E-4,.227E-4,0
STARLINK-32015,2024-117W,2026-01-25T14:21:14.300352,15.30198211,.0001131,53.1572,236.9417,87.9680,272.1450,0,U,60111,999,9029,.15332E-3,.4184E-4,0
STARLINK-32024,2024-117X,2026-01-26T14:10:16.468032,15.30203975,.0001683,53.1560,232.4715,101.4787,258.6403,0,U,60112,999,9044,.24196351E-3,.6814E-4,0
STARLINK-11201 [DTC],2024-118A,2026-01-26T12:09:04.008096,15.69682858,.00013998,53.1579,69.5275,72.9786,287.1385,0,U,60113,999,9136,.39994028E-3,.4809E-3,0
STARLINK-11198 [DTC],2024-118B,2026-01-26T08:58:38.721792,15.69691657,.00019917,53.1578,70.1232,36.3198,323.7955,0,U,60114,999,9134,-.247309E-5,-.889E-5,0
STARLINK-11112 [DTC],2024-118C,2026-01-26T08:51:36.451296,15.69636109,.00011263,53.1588,70.0893,107.2558,252.8584,0,U,60115,999,9134,.97630111E-4,.11219E-3,0
STARLINK-11210 [DTC],2024-118D,2026-01-26T08:44:30.054336,15.69713575,.00010419,53.1573,70.0574,101.6160,258.4975,0,U,60116,999,9134,.33747615E-4,.3502E-4,0
STARLINK-11203 [DTC],2024-118E,2026-01-26T08:37:26.804064,15.69690249,.00015208,53.1576,70.0239,70.7343,289.3839,0,U,60117,999,9134,-.73326598E-4,-.9455E-4,0
STARLINK-11177 [DTC],2024-118F,2026-01-26T13:05:25.610784,15.69686964,.00014397,53.1567,69.0481,119.1851,240.9311,0,U,60118,999,9137,-.54062637E-4,-.7127E-4,0
STARLINK-11127 [DTC],2024-118G,2026-01-26T09:55:00.444576,15.69690507,.00011879,53.1576,69.6439,85.4859,274.6295,0,U,60119,999,9135,-.2295501E-4,-.3366E-4,0
STARLINK-11164 [DTC],2024-118H,2026-01-26T12:51:18.714528,15.69693768,.00011693,53.1580,68.9846,91.0752,269.0400,0,U,60120,999,9137,.2639334E-5,-.269E-5,0
STARLINK-11119 [DTC],2024-118J,2026-01-26T09:26:45.827808,15.69687439,.00010275,53.1586,69.5138,96.6649,263.4486,0,U,60121,999,9135,-.23826637E-4,-.3471E-4,0
STARLINK-11157 [DTC],2024-118K,2026-01-26T12:37:11.404416,15.69689232,.00012475,53.1589,68.9147,120.5266,239.5875,0,U,60122,999,9137,-.11877104E-4,-.2026E-4,0
STARLINK-11162 [DTC],2024-118L,2026-01-26T09:19:40.518624,15.69682451,.00014493,53.1575,69.4767,50.4257,309.6889,0,U,60123,999,9135,-.10321444E-3,-.13059E-3,0
STARLINK-11161 [DTC],2024-118M,2026-01-26T09:12:46.272960,15.69702643,.00013521,53.1576,70.1823,51.3587,308.7552,0,U,60124,999,9134,.6913609E-4,.7792E-4,0
STARLINK-11160 [DTC],2024-118N,2026-01-26T09:40:52.125312,15.69703451,.00016536,53.1575,69.5769,85.1987,274.9220,0,U,60125,999,9135,-.14234851E-4,-.2313E-4,0
STARLINK-31846,2024-118P,2026-01-26T06:42:49.256064,15.30197855,.00015587,53.1583,223.6828,70.5474,289.5695,0,U,60126,999,8920,.15210283E-4,.91E-6,0
STARLINK-31840,2024-118Q,2026-01-26T13:08:09.504672,15.30194514,.00013711,53.1595,222.5056,72.4042,287.7108,0,U,60127,999,8924,.38709637E-4,.787E-5,0
STARLINK-31813,2024-118R,2026-01-24T23:26:18.885408,15.30186874,.00010352,53.1617,229.7698,67.1815,292.9295,0,U,60128,999,8900,.40827974E-4,.85E-5,0
STARLINK-31845,2024-118S,2026-01-25T19:45:11.872512,15.30195588,.00010787,53.1588,223.6698,94.0568,266.0556,0,U,60129,999,8916,.32264149E-4,.596E-5,0
STARLINK-31838,2024-118T,2026-01-25T23:10:47.438112,15.30200193,.0000992,53.1580,225.2706,87.0220,273.0894,0,U,60130,999,8915,.14006442E-3,.3791E-4,0
STARLINK-31785,2024-118U,2026-01-26T06:36:44.755200,15.30195288,.0001646,53.1576,223.6531,93.5655,266.5534,0,U,60131,999,8920,.6526E-3,.19016E-3,0
STARLINK-31792,2024-118V,2026-01-26T12:35:29.280480,15.30182102,.00012649,53.1601,220.1859,110.8645,249.2491,0,U,60132,999,8927,-.25144402E-4,-.1103E-4,0
GOES 19,2024-119A,2026-01-26T13:20:25.058112,1.00273044,.00011015,0.0347,255.7432,84.7197,270.2873,0,U,60133,999,554,0,-.236E-5,0
STARLINK-32043,2024-120A,2026-01-26T12:55:38.514144,15.30187858,.00011635,53.1608,155.6417,63.3779,296.7341,0,U,60135,999,8992,-.17238215E-4,-.869E-5,0
STARLINK-32112,2024-120B,2026-01-26T15:15:16.770528,15.30181240,.00011813,53.1573,155.5373,79.7347,280.3787,0,U,60136,999,9001,.49227293E-3,.1424E-3,0
STARLINK-32050,2024-120C,2026-01-26T01:17:54.794688,15.30201250,.00010649,53.1571,158.3072,81.6314,278.4807,0,U,60137,999,8984,.33491805E-3,.9573E-4,0
STARLINK-32025,2024-120D,2026-01-26T12:31:24.095424,15.30134696,.0001457,53.1626,155.5342,86.9155,273.2013,0,U,60138,999,8992,-.21899739E-3,-.6826E-4,0
STARLINK-31867,2024-120E,2026-01-26T14:00:01.000224,15.50882867,.00070086,53.1508,151.0037,331.5038,2.8591,0,U,60139,999,588,.51994432E-2,.318168E-2,0
STARLINK-31694,2024-120F,2026-01-26T12:04:08.391360,15.30179372,.00012087,53.1581,156.1286,74.4394,285.6740,0,U,60140,999,8999,.551773E-5,-.196E-5,0
STARLINK-32036,2024-120G,2026-01-26T15:10:43.042368,15.30193063,.00011744,53.1585,155.5157,79.8858,280.2275,0,U,60141,999,9001,.50977044E-4,.1151E-4,0
STARLINK-32031,2024-120H,2026-01-26T11:53:29.189472,15.30200619,.00010544,53.1583,156.0829,102.7939,257.3180,0,U,60142,999,8999,.97640416E-4,.2534E-4,0
STARLINK-32027,2024-120J,2026-01-26T12:25:13.973376,15.30189407,.00009231,53.1605,155.4670,87.3499,272.7608,0,U,60143,999,9000,.4566967E-5,-.224E-5,0
STARLINK-32033,2024-120K,2026-01-26T12:43:28.479936,15.30195988,.00010721,53.1605,155.5935,119.4607,240.6501,0,U,60144,999,8992,.7918381E-5,-.125E-5,0
STARLINK-32029,2024-120L,2026-01-26T14:47:56.866560,15.30158929,.00006843,53.1605,155.4161,57.5269,302.5798,0,U,60145,999,8993,.31986087E-3,.9114E-4,0
STARLINK-32127,2024-120M,2026-01-26T15:30:19.094112,15.30185212,.00011075,53.1604,154.8903,77.5882,282.5242,0,U,60146,999,8994,-.14644143E-4,-.792E-5,0
STARLINK-32019,2024-120N,2026-01-26T12:35:52.001952,15.30205899,.0001054,53.1613,155.5512,87.6438,272.4683,0,U,60147,999,8992,.68883342E-4,.1682E-4,0
STARLINK-32021,2024-120P,2026-01-26T12:45:07.382880,15.30198248,.00013399,53.1594,145.6433,87.1089,273.0065,0,U,60148,999,9014,.16809944E-3,.4622E-4,0
STARLINK-32022,2024-120Q,2026-01-26T13:00:11.483712,15.30191826,.00015367,53.1610,155.6583,94.1431,265.9745,0,U,60149,999,9000,.40018759E-4,.826E-5,0
STARLINK-32014,2024-120R,2026-01-26T12:46:31.147680,15.30190795,.00014273,53.1611,155.5979,89.5975,270.5189,0,U,60150,999,8992,-.1815432E-5,-.413E-5,0
STARLINK-32004,2024-120S,2026-01-26T12:51:04.531104,15.30197014,.00012317,53.1592,155.6180,95.3611,264.7530,0,U,60151,999,9000,.38444107E-3,.11043E-3,0
STARLINK-32147,2024-120T,2026-01-26T12:08:41.213184,15.30201190,.00017227,53.1575,156.1466,133.9636,226.1507,0,U,60152,999,8991,.75412964E-3,.22043E-3,0
STARLINK-32131,2024-120U,2026-01-25T15:21:40.946400,15.30209554,.0001572,53.1574,159.9850,84.1917,275.9263,0,U,60153,999,8986,.65814E-3,.19189E-3,0
STARLINK-32145,2024-120V,2026-01-26T12:40:26.385888,15.30195189,.00018729,53.1595,155.5706,75.0464,285.0744,0,U,60154,999,8992,.13801182E-3,.373E-4,0
STARLINK-32137,2024-120W,2026-01-25T18:16:06.702816,15.30193264,.00016735,53.1564,159.3180,95.3354,264.7838,0,U,60155,999,8980,-.22880102E-4,-.1037E-4,0
STARLINK-32048,2024-120X,2026-01-26T14:43:22.145664,15.30181976,.00012952,53.1590,155.3950,83.2128,276.9020,0,U,60156,999,8993,-.8162741E-5,-.601E-5,0
STARLINK-32129,2024-120Y,2026-01-26T12:17:48.298848,15.30195801,.00011417,53.1587,156.1840,90.8835,269.2296,0,U,60157,999,8999,-.9630798E-5,-.644E-5,0
ZHONGXING-3A,2024-122A,2026-01-26T07:19:59.591712,1.00271852,.0000557,0.0199,128.2866,221.2175,347.6721,0,U,60179,999,588,0,-.301E-5,0
ALOS-4 (DAICHI-4),2024-123A,2026-01-26T14:28:15.375072,14.79474662,.00014652,97.9221,125.8071,102.5458,257.5917,0,U,60182,999,8494,.47569342E-3,.3503E-4,0
STARLINK-11168 [DTC],2024-124A,2026-01-26T05:05:49.880832,15.69701273,.0001644,53.1589,10.5758,81.0008,279.1196,0,U,60183,999,9105,-.34717E-4,-.4791E-4,0
STARLINK-11187 [DTC],2024-124B,2026-01-26T04:58:45.862464,15.69718396,.0001686,53.1579,10.5402,121.8754,238.2428,0,U,60184,999,8986,.21249E-3,.25241E-3,0
STARLINK-11180 [DTC],2024-124C,2026-01-26T04:51:42.231168,15.69704166,.0001213,53.1578,10.5080,70.3753,289.7395,0,U,60185,999,8986,.13555E-4,.1053E-4,0
STARLINK-11197 [DTC],2024-124D,2026-01-26T06:16:19.193664,15.69695153,.0001361,53.1578,10.1626,70.5793,289.5372,0,U,60186,999,8987,-.20012E-4,-.3011E-4,0
STARLINK-11194 [DTC],2024-124E,2026-01-26T06:09:16.026336,15.69690779,.0001484,53.1586,10.1289,74.5647,285.5535,0,U,60187,999,8987,-.40645E-5,-.1081E-4,0
STARLINK-11189 [DTC],2024-124F,2026-01-26T04:30:38.042784,15.69729143,.0001221,53.1581,11.1449,73.4535,286.6617,0,U,60188,999,8985,.21625E-4,.2034E-4,0
STARLINK-11183 [DTC],2024-124G,2026-01-26T04:23:35.362752,15.69725112,.0001179,53.1578,11.1120,89.9561,270.1592,0,U,60189,999,8985,.10513E-3,.12174E-3,0
STARLINK-11179 [DTC],2024-124H,2026-01-26T05:48:13.226400,15.69696857,.0001509,53.1584,10.7653,97.9500,262.1689,0,U,60190,999,8986,-.42597E-4,-.5743E-4,0
